BEIDOU-2 IGSO-5         
1 37948U 11073A   26162.77121005 -.00000166  00000+0  00000+0 0  9995
2 37948  47.6892 271.6141 0113734 221.6138 136.2744  1.00273939 53079
LUCH-5A                 
1 37951U 11074B   26162.51361054 -.00000038  00000+0  00000+0 0  9990
2 37951   8.7389  73.8906 0002206  21.3830 156.4593  1.00269761 52992
BEIDOU-2 G5             
1 38091U 12008A   26162.75765949  .00000072  00000+0  00000+0 0  9998
2 38091   3.5588  69.7326 0009202 274.4508 247.3354  1.00270648 52315
BEIDOU-2 M3             
1 38250U 12018A   26162.28213108 -.00000066  00000+0  00000+0 0  9993
2 38250  55.7634 305.0746 0019968 274.6293  85.1272  1.86230146 95832
BEIDOU-2 M4             
1 38251U 12018B   26162.21442390 -.00000065  00000+0  00000+0 0  9993
2 38251  55.6637 304.2914 0011156 276.7373  83.1206  1.86229745 95834
SES-5                   
1 38652U 12036A   26161.69740811  .00000051  00000+0  00000+0 0  9992
2 38652   0.0496 311.6239 0001848 129.2695  74.2159  1.00271674 44391
BEIDOU-2 M6             
1 38775U 12050B   26161.92419310 -.00000053  00000+0  00000+0 0  9990
2 38775  56.5389  63.1015 0013801 356.5359   3.4771  1.86230876 93198
GSAT-10                 
1 38779U 12051B   26162.49709873  .00000000  00000+0  00000+0 0  9995
2 38779   0.0170 344.7003 0007747 106.3247  70.7939  1.00269530 50043
NAVSTAR 67 (USA 239)    
1 38833U 12053A   26162.33343058  .00000092  00000+0  00000+0 0  9991
2 38833  53.5848 143.8391 0179946  65.6739 296.1889  2.00567339 99322
GSAT0103 (GALILEO-FM3)  
1 38857U 12055A   26162.02314896  .00000014  00000+0  00000+0 0  9997
2 38857  55.8029 101.7147 0004991 304.7651  55.1525  1.70473353 84909
BEIDOU-2 G6             
1 38953U 12059A   26162.76606315 -.00000162  00000+0  00000+0 0  9994
2 38953   4.4062  73.5829 0009821 324.7615 221.5663  1.00273375 49857
LUCH-5B                 
1 38977U 12061A   26161.97829617 -.00000127  00000+0  00000+0 0  9998
2 38977  10.4672  49.9410 0001940 141.4195  43.8723  1.00273172 49544
COSMOS 2485 [GLONASS-M] 
1 39155U 13019A   26162.27886735 -.00000029  00000+0  00000+0 0  9990
2 39155  65.4165  73.8029 0023362 234.5519 125.2462  2.13103450102156
NAVSTAR 68 (USA 242)    
1 39166U 13023A   26162.20020301 -.00000030  00000+0  00000+0 0  9991
2 39166  54.5089 269.2176 0141566  51.0220 310.2468  2.00563436 95764
IRNSS-1A                
1 39199U 13034A   26142.85947303  .00000059  00000+0  00000+0 0  9998
2 39199  35.6649  64.2334 0016618 185.3754 355.4646  1.00280263 47111
NAVSTAR 69 (USA 248)    
1 39533U 14008A   26162.20182009  .00000102  00000+0  00000+0 0  9996
2 39533  53.6537 149.5638 0084237 231.1802 128.0698  2.00559382 89567
ASTRA 5B                
1 39617U 14011B   26162.67348307  .00000154  00000+0  00000+0 0  9996
2 39617   0.0513 326.2495 0001885 102.6809  97.0290  1.00271104 44614
COSMOS 2492 [GLONASS-M] 
1 39620U 14012A   26160.36073044 -.00000033  00000+0  00000+0 0  9995
2 39620  65.3026 314.2024 0010486 325.9791  33.9512  2.13103521 95077
IRNSS-1B                
1 39635U 14017A   26161.77869507  .00000125  00000+0  00000+0 0  9990
2 39635  28.9327 240.5136 0022979 189.5605 164.4642  1.00274335 44722
LUCH-5V                 
1 39727U 14023A   26162.64193955 -.00000253  00000+0  00000+0 0  9996
2 39727   5.1184  69.8082 0002716  38.5192 117.3745  1.00265868 44301
NAVSTAR 70 (USA 251)    
1 39741U 14026A   26161.97866987 -.00000062  00000+0  00000+0 0  9990
2 39741  56.5015 331.7592 0038214 326.6633  33.1027  2.00561348 88411
COSMOS 2500 [GLONASS-M] 
1 40001U 14032A   26161.93834144 -.00000040  00000+0  00000+0 0  9990
2 40001  65.2368 313.8964 0007111 183.5572 176.4316  2.13106108 93329
NAVSTAR 71 (USA 256)    
1 40105U 14045A   26162.07035882 -.00000016  00000+0  00000+0 0  9990
2 40105  55.3493  88.7087 0033049 118.3165 242.0048  2.00557949 85951
GSAT0201 (GALILEO 5)    
1 40128U 14050A   26160.33214522 -.00000053  00000+0  00000+0 0  9999
2 40128  48.8841 273.7586 1673300 179.0833 181.3092  1.85520027 78176
GSAT0202 (GALILEO 6)    
1 40129U 14050B   26160.58770951 -.00000052  00000+0  00000+0 0  9999
2 40129  48.9007 272.8335 1674676 179.8278 180.2807  1.85520607 80340
IRNSS-1C                
1 40269U 14061A   26162.71097646 -.00000148  00000+0  00000+0 0  9992
2 40269   6.5045  89.0335 0022699   1.7820 148.1945  1.00270198 42632
NAVSTAR 72 (USA 258)    
1 40294U 14068A   26162.43934869 -.00000062  00000+0  00000+0 0  9998
2 40294  56.9837  31.1762 0066929  70.3719 290.4050  2.00575743 85093
COSMOS 2501 [GLONASS-K] 
1 40315U 14075A   26162.20036045  .00000121  00000+0  00000+0 0  9999
2 40315  63.6159 190.5792 0022542 212.2512 147.6843  2.13101483 89720
NAVSTAR 73 (USA 260)    
1 40534U 15013A   26162.07921038  .00000094  00000+0  00000+0 0  9994
2 40534  53.1684 204.4303 0109375  40.0978 320.7887  2.00551724 81701
GSAT0203 (GALILEO 7)    
1 40544U 15017A   26159.41409852 -.00000063  00000+0  00000+0 0  9995
2 40544  56.7896 341.8347 0002095 280.5229  79.4690  1.70476076 69057
GSAT0204 (GALILEO 8)    
1 40545U 15017B   26162.01620444 -.00000065  00000+0  00000+0 0  9990
2 40545  56.7983 341.7824 0001894 249.4853 110.5089  1.70475559 32141
